{"type": "FeatureCollection", "features": [ {"type": "Feature", "properties": {"norad_id": 37867, "name": "COSMOS 2476 (744)", "group": "gnss", "lat": -48.09457139254864, "lon": 48.27300970789255, "alt_km": 19115.443466524364, "timestamp": "2025-12-09T07:41:33.448201+00:00", "meta": {"OBJECT_NAME": "COSMOS 2476 (744)", "OBJECT_ID": "2011-064A", "EPOCH": "2025-12-08T12:40:16.683168", "MEAN_MOTION": 2.131013, "ECCENTRICITY": 0.00241182, "INCLINATION": 65.16, "RA_OF_ASC_NODE": 79.314, "ARG_OF_PERICENTER": 233.9995, "MEAN_ANOMALY": 182.6426, "EPHEMERIS_TYPE": 0, "CLASSIFICATION_TYPE": "U", "NORAD_CAT_ID": 37867, "ELEMENT_SET_NO": 999, "REV_AT_EPOCH": 10970, "BSTAR": 0, "MEAN_MOTION_DOT": -1.2e-07, "MEAN_MOTION_DDOT": 0}, "tle": {"line1": "1 37867U 11064A   25342.52797087 -.00000012  00000+0  00000+0 0  9996", "line2": "2 37867  65.1600  79.3140 0024118 233.9995 182.6426  2.13101300109708"}}, "geometry": {"type": "Point", "coordinates": [48.27300970789255, -48.09457139254864]}}, {"type": "Feature", "properties": {"norad_id": 37868, "name": "COSMOS 2477 (745)", "group": "gnss", "lat": 47.739255775868386, "lon": -131.2134587438653, "alt_km": 19142.00743332264, "timestamp": "2025-12-09T07:41:33.448213+00:00", "meta": {"OBJECT_NAME": "COSMOS 2477 (745)", "OBJECT_ID": "2011-064B", "EPOCH": "2025-12-08T06:12:22.664160", "MEAN_MOTION": 2.13102704, "ECCENTRICITY": 0.0021182, "INCLINATION": 65.1663, "RA_OF_ASC_NODE": 79.4007, "ARG_OF_PERICENTER": 234.576, "MEAN_ANOMALY": 156.3219, "EPHEMERIS_TYPE": 0, "CLASSIFICATION_TYPE": "U", "NORAD_CAT_ID": 37868, "ELEMENT_SET_NO": 999, "REV_AT_EPOCH": 10969, "BSTAR": 0, "MEAN_MOTION_DOT": -1.1e-07, "MEAN_MOTION_DDOT": 0}, "tle": {"line1": "1 37868U 11064B   25342.25859565 -.00000011  00000+0  00000+0 0  9996", "line2": "2 37868  65.1663  79.4007 0021182 234.5760 156.3219  2.13102704109691"}}, "geometry": {"type": "Point", "coordinates": [-131.2134587438653, 47.739255775868386]}}, {"type": "Feature", "properties": {"norad_id": 37869, "name": "COSMOS 2475 (743)", "group": "gnss", "lat": 63.85842043849851, "lon": 149.73320539270114, "alt_km": 19187.77902418927, "timestamp": "2025-12-09T07:41:33.448243+00:00", "meta": {"OBJECT_NAME": "COSMOS 2475 (743)", "OBJECT_ID": "2011-064C", "EPOCH": "2025-12-08T23:53:27.057120", "MEAN_MOTION": 2.131013, "ECCENTRICITY": 0.00260707, "INCLINATION": 65.174, "RA_OF_ASC_NODE": 79.3957, "ARG_OF_PERICENTER": 248.2366, "MEAN_ANOMALY": 303.9156, "EPHEMERIS_TYPE": 0, "CLASSIFICATION_TYPE": "U", "NORAD_CAT_ID": 37869, "ELEMENT_SET_NO": 999, "REV_AT_EPOCH": 10971, "BSTAR": 0, "MEAN_MOTION_DOT": -1.3e-07, "MEAN_MOTION_DDOT": 0}, "tle": {"line1": "1 37869U 11064C   25342.99545205 -.00000013  00000+0  00000+0 0  9993", "line2": "2 37869  65.1740  79.3957 0026070 248.2366 303.9156  2.13101300109710"}}, "geometry": {"type": "Point", "coordinates": [149.73320539270114, 63.85842043849851]}}, {"type": "Feature", "properties": {"norad_id": 37948, "name": "BEIDOU-2 IGSO-5 (C10)", "group": "gnss", "lat": 9.763828495095701, "lon": -77.229131172425, "alt_km": 36185.446304252204, "timestamp": "2025-12-09T07:41:33.448258+00:00", "meta": {"OBJECT_NAME": "BEIDOU-2 IGSO-5 (C10)", "OBJECT_ID": "2011-073A", "EPOCH": "2025-12-07T19:12:14.882400", "MEAN_MOTION": 1.00291658, "ECCENTRICITY": 0.01104068, "INCLINATION": 48.0298, "RA_OF_ASC_NODE": 273.9181, "ARG_OF_PERICENTER": 222.1784, "MEAN_ANOMALY": 321.4594, "EPHEMERIS_TYPE": 0, "CLASSIFICATION_TYPE": "U", "NORAD_CAT_ID": 37948, "ELEMENT_SET_NO": 999, "REV_AT_EPOCH": 5121, "BSTAR": 0, "MEAN_MOTION_DOT": -1.91e-06, "MEAN_MOTION_DDOT": 0}, "tle": {"line1": "1 37948U 11073A   25341.80017225 -.00000191  00000+0  00000+0 0  9993", "line2": "2 37948  48.0298 273.9181 0110406 222.1784 321.4594  1.00291658 51212"}}, "geometry": {"type": "Point", "coordinates": [-77.229131172425, 9.763828495095701]}}, {"type": "Feature", "properties": {"norad_id": 37951, "name": "LUCH 5A (SDCM/PRN 140)", "group": "gnss", "lat": -8.018134506312213, "lon": 0.9474928538866005, "alt_km": 35793.170795983715, "timestamp": "2025-12-09T07:41:33.448271+00:00", "meta": {"OBJECT_NAME": "LUCH 5A (SDCM/PRN 140)", "OBJECT_ID": "2011-074B", "EPOCH": "2025-12-08T14:23:47.688864", "MEAN_MOTION": 1.00274097, "ECCENTRICITY": 0.0005787, "INCLINATION": 8.2694, "RA_OF_ASC_NODE": 76.6453, "ARG_OF_PERICENTER": 178.2122, "MEAN_ANOMALY": 205.7197, "EPHEMERIS_TYPE": 0, "CLASSIFICATION_TYPE": "U", "NORAD_CAT_ID": 37951, "ELEMENT_SET_NO": 999, "REV_AT_EPOCH": 5114, "BSTAR": 0, "MEAN_MOTION_DOT": -4.9e-07, "MEAN_MOTION_DDOT": 0}, "tle": {"line1": "1 37951U 11074B   25342.59985751 -.00000049  00000+0  00000+0 0  9995", "line2": "2 37951   8.2694  76.6453 0005787 178.2122 205.7197  1.00274097 51149"}}, "geometry": {"type": "Point", "coordinates": [0.9474928538866005, -8.018134506312213]}}, {"type": "Feature", "properties": {"norad_id": 38091, "name": "BEIDOU-2 G5 (C05)", "group": "gnss", "lat": -0.10906389148866456, "lon": -107.65421711816421, "alt_km": 35747.51553175869, "timestamp": "2025-12-09T07:41:33.448291+00:00", "meta": {"OBJECT_NAME": "BEIDOU-2 G5 (C05)", "OBJECT_ID": "2012-008A", "EPOCH": "2025-12-08T22:34:38.601120", "MEAN_MOTION": 1.00274031, "ECCENTRICITY": 0.00125308, "INCLINATION": 3.0993, "RA_OF_ASC_NODE": 70.7121, "ARG_OF_PERICENTER": 226.1175, "MEAN_ANOMALY": 178.5121, "EPHEMERIS_TYPE": 0, "CLASSIFICATION_TYPE": "U", "NORAD_CAT_ID": 38091, "ELEMENT_SET_NO": 999, "REV_AT_EPOCH": 5046, "BSTAR": 0, "MEAN_MOTION_DOT": 5.8e-07, "MEAN_MOTION_DDOT": 0}, "tle": {"line1": "1 38091U 12008A   25342.94072455  .00000058  00000+0  00000+0 0  9995", "line2": "2 38091   3.0993  70.7121 0012530 226.1175 178.5121  1.00274031 50468"}}, "geometry": {"type": "Point", "coordinates": [-107.65421711816421, -0.10906389148866456]}}, {"type": "Feature", "properties": {"norad_id": 38250, "name": "BEIDOU-2 M3 (C11)", "group": "gnss", "lat": 29.335950428356973, "lon": 108.90876029011918, "alt_km": 21568.77069210398, "timestamp": "2025-12-09T07:41:33.448306+00:00", "meta": {"OBJECT_NAME": "BEIDOU-2 M3 (C11)", "OBJECT_ID": "2012-018A", "EPOCH": "2025-12-08T13:38:39.271776", "MEAN_MOTION": 1.86229758, "ECCENTRICITY": 0.0024371, "INCLINATION": 55.9237, "RA_OF_ASC_NODE": 311.2977, "ARG_OF_PERICENTER": 274.148, "MEAN_ANOMALY": 85.5607, "EPHEMERIS_TYPE": 0, "CLASSIFICATION_TYPE": "U", "NORAD_CAT_ID": 38250, "ELEMENT_SET_NO": 999, "REV_AT_EPOCH": 9239, "BSTAR": 0, "MEAN_MOTION_DOT": -7.3e-07, "MEAN_MOTION_DDOT": 0}, "tle": {"line1": "1 38250U 12018A   25342.56851009 -.00000073  00000+0  00000+0 0  9999", "line2": "2 38250  55.9237 311.2977 0024371 274.1480  85.5607  1.86229758 92396"}}, "geometry": {"type": "Point", "coordinates": [108.90876029011918, 29.335950428356973]}}, {"type": "Feature", "properties": {"norad_id": 38251, "name": "BEIDOU-2 M4 (C12)", "group": "gnss", "lat": -7.794757467928538, "lon": 135.8161945118703, "alt_km": 21528.06105814589, "timestamp": "2025-12-09T07:41:33.448317+00:00", "meta": {"OBJECT_NAME": "BEIDOU-2 M4 (C12)", "OBJECT_ID": "2012-018B", "EPOCH": "2025-12-08T12:00:48.229344", "MEAN_MOTION": 1.86229448, "ECCENTRICITY": 0.0015516, "INCLINATION": 55.8253, "RA_OF_ASC_NODE": 310.5294, "ARG_OF_PERICENTER": 277.5058, "MEAN_ANOMALY": 82.3051, "EPHEMERIS_TYPE": 0, "CLASSIFICATION_TYPE": "U", "NORAD_CAT_ID": 38251, "ELEMENT_SET_NO": 999, "REV_AT_EPOCH": 9239, "BSTAR": 0, "MEAN_MOTION_DOT": -7.3e-07, "MEAN_MOTION_DDOT": 0}, "tle": {"line1": "1 38251U 12018B   25342.50055821 -.00000073  00000+0  00000+0 0  9992", "line2": "2 38251  55.8253 310.5294 0015516 277.5058  82.3051  1.86229448 92391"}}, "geometry": {"type": "Point", "coordinates": [135.8161945118703, -7.794757467928538]}}, {"type": "Feature", "properties": {"norad_id": 38652, "name": "SES-5 (EGNOS/PRN 136)", "group": "gnss", "lat": -0.0674651378372021, "lon": -161.342652524782, "alt_km": 35780.914031133834, "timestamp": "2025-12-09T07:41:33.448334+00:00", "meta": {"OBJECT_NAME": "SES-5 (EGNOS/PRN 136)", "OBJECT_ID": "2012-036A", "EPOCH": "2025-12-08T15:20:19.777056", "MEAN_MOTION": 1.00270941, "ECCENTRICITY": 0.00022004, "INCLINATION": 0.0584, "RA_OF_ASC_NODE": 304.5652, "ARG_OF_PERICENTER": 308.8412, "MEAN_ANOMALY": 59.2985, "EPHEMERIS_TYPE": 0, "CLASSIFICATION_TYPE": "U", "NORAD_CAT_ID": 38652, "ELEMENT_SET_NO": 999, "REV_AT_EPOCH": 4255, "BSTAR": 0, "MEAN_MOTION_DOT": 3.6e-07, "MEAN_MOTION_DDOT": 0}, "tle": {"line1": "1 38652U 12036A   25342.63911779  .00000036  00000+0  00000+0 0  9992", "line2": "2 38652   0.0584 304.5652 0002200 308.8412  59.2985  1.00270941 42556"}}, "geometry": {"type": "Point", "coordinates": [-161.342652524782, -0.0674651378372021]}}, {"type": "Feature", "properties": {"norad_id": 38775, "name": "BEIDOU-2 M6 (C14)", "group": "gnss", "lat": 19.47022771925838, "lon": 82.77757027690893, "alt_km": 21501.57204906975, "timestamp": "2025-12-09T07:41:33.448347+00:00", "meta": {"OBJECT_NAME": "BEIDOU-2 M6 (C14)", "OBJECT_ID": "2012-050B", "EPOCH": "2025-12-08T05:04:33.479040", "MEAN_MOTION": 1.86230723, "ECCENTRICITY": 0.00110356, "INCLINATION": 56.3747, "RA_OF_ASC_NODE": 69.2178, "ARG_OF_PERICENTER": 345.3738, "MEAN_ANOMALY": 14.6151, "EPHEMERIS_TYPE": 0, "CLASSIFICATION_TYPE": "U", "NORAD_CAT_ID": 38775, "ELEMENT_SET_NO": 999, "REV_AT_EPOCH": 8975, "BSTAR": 0, "MEAN_MOTION_DOT": -4.4e-07, "MEAN_MOTION_DDOT": 0}, "tle": {"line1": "1 38775U 12050B   25342.21149860 -.00000044  00000+0  00000+0 0  9992", "line2": "2 38775  56.3747  69.2178 0011035 345.3738  14.6151  1.86230723 89759"}}, "geometry": {"type": "Point", "coordinates": [82.77757027690893, 19.47022771925838]}}]}